{
  "norad_id": 61187,
  "name": "BEIDOU-3 M27",
  "history": [
    {
      "epoch": "2026-03-27T15:29:11.582880Z",
      "apogee_km": 21536.094284294995,
      "perigee_km": 21520.20444483901,
      "latitude_deg": 2.7452647953403746,
      "longitude_deg": -110.34345212525122,
      "height_km": 21521.006111489904,
      "semi_major_axis_km": 27906.286364567004,
      "eccentricity": 0.0002847,
      "inclination_deg": 54.5409,
      "raan_deg": 305.0587,
      "arg_perigee_deg": 30.2437,
      "mean_anomaly_deg": 333.176,
      "mean_motion_rev_day": 1.86230021
    }
  ]
}